     2.100          NAVIGATION                              RINEX VERSION / TYPE
fic2rin                                 12/16/2011 00:11:56 PGM / RUN BY / DATE
                                                            END OF HEADER
23 11 12 15 16  0  0.0  .250617042184D-03 -.329691829393D-11  .000000000000D+00
     .740000000000D+02  .313437500000D+02  .425231998334D-08 -.252288699795D+01
     .152178108692D-05  .752252771053D-02  .100526958704D-04  .515370202637D+04
     .403200000000D+06 -.119209289551D-06 -.239856517816D+01 -.633299350739D-07
     .962333381322D+00  .187187500000D+03 -.303034847879D+01 -.785568436364D-08
    -.237509893240D-09  .100000000000D+01  .166600000000D+04  .000000000000D+00
     .240000000000D+01  .000000000000D+00 -.204890966415D-07  .740000000000D+02
     .396006000000D+06  .400000000000D+01
25 11 12 15 16  0  0.0  .300947576761D-04  .682121026330D-12  .000000000000D+00
     .101000000000D+03 -.657812500000D+02  .462947855065D-08  .751661954400D+00
    -.361539423466D-05  .102112174500D-02  .372901558876D-05  .515354998779D+04
     .403200000000D+06 -.279396772385D-07 -.327707630864D+00  .111758708954D-07
     .966827233058D+00  .311750000000D+03  .743818877533D+00 -.836677708128D-08
    -.625026034843D-10  .100000000000D+01  .166600000000D+04  .000000000000D+00
     .240000000000D+01  .000000000000D+00  .512227416039D-08  .101000000000D+03
     .396006000000D+06  .400000000000D+01
26 11 12 15 16  0  0.0 -.262556597590D-03 -.138697942020D-10  .000000000000D+00
     .101000000000D+03  .455312500000D+02  .362229374022D-08 -.266318952124D+01
     .229105353355D-05  .205249666469D-01  .104270875454D-04  .515365648651D+04
     .403200000000D+06  .277534127235D-06 -.232933996780D+01 -.894069671631D-07
     .985346175509D+00  .188156250000D+03  .116669191297D+01 -.729851829830D-08
    -.149291932894D-09  .100000000000D+01  .166600000000D+04  .000000000000D+00
     .340000000000D+01  .000000000000D+00 -.605359673500D-08  .101000000000D+03
     .396006000000D+06  .400000000000D+01
27 11 12 15 16  0  0.0  .336098950356D-03  .397903932026D-11  .000000000000D+00
     .101000000000D+03  .936562500000D+02  .391944897507D-08 -.170756130059D+01
     .527687370777D-05  .219279852463D-01  .625476241112D-05  .515358415222D+04
     .403200000000D+06 -.221654772758D-06 -.140475417683D+01  .469386577606D-06
     .981547142567D+00  .276656250000D+03 -.116353849796D+01 -.804354933183D-08
     .363229415677D-09  .100000000000D+01  .166600000000D+04  .000000000000D+00
     .485000000000D+01  .630000000000D+02 -.419095158577D-08  .101000000000D+03
     .396006000000D+06  .400000000000D+01
28 11 12 15 16  0  0.0  .933888368309D-04  .352429196937D-11  .000000000000D+00
     .170000000000D+02 -.658125000000D+02  .443054169270D-08 -.649465671915D+00
    -.320747494698D-05  .176457345951D-01  .471808016300D-05  .515370429230D+04
     .403200000000D+06 -.165775418282D-06 -.270548462024D+00  .191852450371D-06
     .977263219576D+00  .301156250000D+03 -.186496556737D+01 -.845820946123D-08
    -.175007289756D-10  .100000000000D+01  .166600000000D+04  .000000000000D+00
     .240000000000D+01  .000000000000D+00 -.107102096081D-07  .170000000000D+02
     .396006000000D+06  .400000000000D+01
29 11 12 15 16  0  0.0  .266313552856D-03  .329691829393D-11  .000000000000D+00
     .730000000000D+02 -.749687500000D+02  .443982779379D-08  .149456765067D+01
    -.379979610443D-05  .211393029895D-02  .115726143122D-04  .515367518997D+04
     .403200000000D+06  .838190317154D-07  .772047249701D+00 -.540167093277D-07
     .962647308913D+00  .159937500000D+03 -.118433300217D+01 -.789818613401D-08
     .116076263614D-09  .100000000000D+01  .166600000000D+04  .000000000000D+00
     .240000000000D+01  .000000000000D+00 -.931322574615D-08  .730000000000D+02
     .396006000000D+06  .400000000000D+01
31 11 12 15 16  0  0.0  .182844232768D-03  .488853402203D-11  .000000000000D+00
     .370000000000D+02  .686562500000D+02  .396802242692D-08  .216241065896D+01
     .369921326637D-05  .796899141278D-02  .585988163948D-05  .515354891968D+04
     .403200000000D+06  .931322574615D-07 -.134915605569D+01  .186264514923D-08
     .980327838384D+00  .272750000000D+03 -.947000139020D+00 -.790532928870D-08
     .230723896291D-09  .100000000000D+01  .166600000000D+04  .000000000000D+00
     .240000000000D+01  .000000000000D+00 -.130385160446D-07  .370000000000D+02
     .396006000000D+06  .400000000000D+01
32 11 12 15 16  0  0.0 -.377582386136D-03 -.579802872380D-11  .000000000000D+00
     .690000000000D+02  .140625000000D+01  .488484633060D-08  .287371315686D+01
     .856816768646D-07  .120318749687D-01  .629387795925D-05  .515377916718D+04
     .403200000000D+06 -.149011611938D-07  .291240199602D+01  .236555933952D-06
     .953264886737D+00  .252437500000D+03 -.653930808032D+00 -.809998025383D-08
    -.406802659249D-09  .100000000000D+01  .166600000000D+04  .000000000000D+00
     .240000000000D+01  .000000000000D+00 -.279396772385D-08  .690000000000D+02
     .396006000000D+06  .400000000000D+01
26 11 12 15 15 59 44.0 -.262557994574D-03 -.138697942020D-10  .000000000000D+00
     .300000000000D+01  .455312500000D+02  .362193658248D-08 -.266552351195D+01
     .229105353355D-05  .205249683931D-01  .104270875454D-04  .515365648460D+04
     .403184000000D+06  .277534127235D-06 -.232933985662D+01 -.894069671631D-07
     .985346174046D+00  .188156250000D+03  .116669218507D+01 -.729816114056D-08
    -.149291932894D-09  .100000000000D+01  .166600000000D+04  .000000000000D+00
     .240000000000D+01  .000000000000D+00 -.605359673500D-08  .300000000000D+01
     .396696000000D+06  .400000000000D+01
 6 11 12 15 15 59 44.0  .153076834977D-04  .409272615798D-11  .000000000000D+00
     .100000000000D+01 -.762187500000D+02  .501270879944D-08 -.502096315104D+00
    -.409968197346D-05  .679044984281D-02  .100564211607D-04  .515370520401D+04
     .403184000000D+06 -.335276126862D-07  .674575499189D+00 -.193715095520D-06
     .937171045530D+00  .174656250000D+03 -.634187893226D+00 -.829463121897D-08
     .903609067516D-10  .100000000000D+01  .166600000000D+04  .000000000000D+00
     .240000000000D+01  .000000000000D+00 -.512227416039D-08  .100000000000D+01
     .398736000000D+06  .400000000000D+01
 9 11 12 15 15 59 44.0  .125202815980D-03  .261479726760D-11  .000000000000D+00
     .800000000000D+01  .765000000000D+02  .399623788792D-08  .149773513749D+01
     .365823507309D-05  .171524198959D-01  .610016286373D-05  .515364640999D+04
     .403184000000D+06  .763684511185D-07 -.137829866973D+01 -.426545739174D-06
     .984037583584D+00  .272531250000D+03  .160303796602D+01 -.804497796277D-08
     .348585948575D-09  .100000000000D+01  .166600000000D+04  .000000000000D+00
     .240000000000D+01  .000000000000D+00 -.558793544769D-08  .800000000000D+01
     .400236000000D+06  .400000000000D+01
30 11 12 15 15 59 28.0  .222502276301D-04 -.117097442853D-10  .000000000000D+00
     .570000000000D+02 -.461250000000D+02  .478019911448D-08 -.147255170788D+01
    -.210106372833D-05  .109304609941D-01  .354088842869D-05  .515359030914D+04
     .403168000000D+06 -.260770320892D-07 -.417058367629D+00  .316649675369D-06
     .958061471814D+00  .307718750000D+03  .155342983463D+01 -.846356682724D-08
     .357157734196D-11  .100000000000D+01  .166600000000D+04  .000000000000D+00
     .240000000000D+01  .000000000000D+00 -.419095158577D-08  .570000000000D+02
     .401766000000D+06  .400000000000D+01
27 11 12 15 15 59 44.0  .336096622050D-03  .397903932026D-11  .000000000000D+00
     .110000000000D+02  .936562500000D+02  .391944897507D-08 -.170989563801D+01
     .527873635292D-05  .219280002639D-01  .625476241112D-05  .515358415794D+04
     .403184000000D+06 -.221654772758D-06 -.140475404370D+01  .469386577606D-06
     .981547133789D+00  .276656250000D+03 -.116353813076D+01 -.804354933183D-08
     .363586573412D-09  .100000000000D+01  .166600000000D+04  .000000000000D+00
     .240000000000D+01  .630000000000D+02 -.419095158577D-08  .110000000000D+02
     .401976000000D+06  .400000000000D+01
25 11 12 15 15 59 44.0  .300952233374D-04  .568434188608D-12  .000000000000D+00
     .180000000000D+02 -.657812500000D+02  .462983570838D-08  .749328842908D+00
    -.361539423466D-05  .102112779859D-02  .372901558876D-05  .515354999161D+04
     .403184000000D+06 -.279396772385D-07 -.327707500664D+00  .111758708954D-07
     .966827222817D+00  .311750000000D+03  .743818043670D+00 -.836677708128D-08
    -.625026034843D-10  .100000000000D+01  .166600000000D+04  .000000000000D+00
     .240000000000D+01  .630000000000D+02  .512227416039D-08  .180000000000D+02
     .402366000000D+06  .400000000000D+01
30 11 12 15 17 59 28.0  .221654772758D-04 -.117097442853D-10  .000000000000D+00
     .600000000000D+02 -.471562500000D+02  .481698636110D-08 -.422314131970D+00
    -.241026282310D-05  .109303130303D-01  .362657010555D-05  .515359020042D+04
     .410368000000D+06 -.156462192535D-06 -.417120784492D+00  .800937414169D-07
     .958061018310D+00  .309562500000D+03  .155342639092D+01 -.865821779238D-08
     .628597612185D-10  .100000000000D+01  .166600000000D+04  .000000000000D+00
     .485000000000D+01  .000000000000D+00 -.419095158577D-08  .600000000000D+02
     .403206000000D+06  .400000000000D+01
 6 11 12 15 17 59 44.0  .153370201588D-04  .409272615798D-11  .000000000000D+00
     .210000000000D+02 -.883125000000D+02  .498663628485D-08  .548123139643D+00
    -.463612377644D-05  .679195462726D-02  .101551413536D-04  .515370805168D+04
     .410384000000D+06  .949949026108D-07  .674515817983D+00 -.126659870148D-06
     .937171174267D+00  .172500000000D+03 -.634243830824D+00 -.835749098019D-08
     .239295681911D-10  .100000000000D+01  .166600000000D+04  .000000000000D+00
     .240000000000D+01  .000000000000D+00 -.512227416039D-08  .210000000000D+02
     .403206000000D+06  .400000000000D+01
